{
  "norad_id": 67035,
  "name": "STARLINK-36085",
  "history": [
    {
      "epoch": "2026-03-28T20:06:01.029888Z",
      "apogee_km": 483.7740218858453,
      "perigee_km": 482.16619004663335,
      "latitude_deg": -3.607647756175095e-05,
      "longitude_deg": 162.5208450055403,
      "height_km": 482.8533560446688,
      "semi_major_axis_km": 6861.107105966239,
      "eccentricity": 0.00011717,
      "inclination_deg": 42.9983,
      "raan_deg": 290.2774,
      "arg_perigee_deg": 262.3547,
      "mean_anomaly_deg": 97.7171,
      "mean_motion_rev_day": 15.2760638
    }
  ]
}