{"fetched_at":"2026-03-29T16:36:15Z","count":15609,"tles":[{"name":"STARLINK-36085","line1":"1 67035U 25294F   26087.83751192  .00022552  00000+0  82589-3 0  9992","line2":"2 67035  42.9983 290.2774 0001171 262.3547  97.7171 15.27606380 17725","category":"Starlink"}]}